satname,norad_id,inclination_deg,eccentricity,mean_motion_rev_per_day,perigee_km,apogee_km,l1,l2
STARLINK-1225,45187,53.1577,0.000267,15.32281322,467.17946485226094,470.83584009668266,1 45187U 20012K   26124.76386352  .00041435  00000+0  13154-2 0  9997,2 45187  53.1577 139.0168 0002670  52.4188 307.7056 15.32281322343520
STARLINK-1230,45189,53.1551,0.0003591,15.32149187,466.94236828721387,471.8602703081342,1 45189U 20012M   26124.44729838  .00130670  00000+0  40912-2 0  9996,2 45189  53.1551 140.5491 0003591  39.4062 320.7200 15.32149187340704
STARLINK-1234,45190,53.0412,0.0008639,15.69998618,353.08083561291824,364.7210898048861,1 45190U 20012N   26124.08749653  .00068162  00000+0  55509-3 0  9990,2 45190  53.0412  52.7087 0008639 106.1627 254.0341 15.69998618344567
STARLINK-1269,45197,53.1561,0.0002625,15.32292617,467.17663752223143,470.7713707994162,1 45197U 20012V   26124.76917566  .00034535  00000+0  10990-2 0  9993,2 45197  53.1561 138.8943 0002625  49.5696 310.5534 15.32292617343503
STARLINK-1154,45198,53.0426,0.0003662,15.55049998,399.5244064078661,404.4901840897064,1 45198U 20012W   26124.62965402  .00093299  00000+0  13552-2 0  9990,2 45198  53.0426 101.2844 0003662   9.5770 350.5309 15.55049998343970
STARLINK-1199,45201,53.1557,0.0002581,15.32158449,467.6063808683066,471.1410659037183,1 45201U 20012Z   26124.28334236  .00043295  00000+0  13789-2 0  9995,2 45201  53.1557 125.4248 0002581  64.9792 295.1477 15.32158449343679
STARLINK-1209,45206,53.0409,0.0011986,15.60926204,376.87413869741613,393.08668375560865,1 45206U 20012AE  26124.55041719  .00059673  00000+0  69834-3 0  9991,2 45206  53.0409  62.8753 0011986  97.0032 263.2344 15.60926204343613
STARLINK-1231,45212,53.0436,0.0004391,15.25614342,485.92596790915195,491.95663607396,1 45212U 20012AL  26124.70386534  .00025352  00000+0  99419-3 0  9991,2 45212  53.0436 117.5543 0004391 355.3761   4.7195 15.25614342343762
STARLINK-1271,45217,53.1554,0.0002414,15.32131639,467.80059554251693,471.1066122860857,1 45217U 20012AR  26124.28316277  .00022256  00000+0  71710-3 0  9990,2 45217  53.1554 125.5706 0002414  53.3409 306.7814 15.32131639343671
STARLINK-1191,45222,53.1546,0.0004939,15.35847533,455.0276788575138,461.78081430088514,1 45222U 20012AW  26124.41431260  .00054580  00000+0  15416-2 0  9996,2 45222  53.1546  98.9054 0004939  69.3635 290.7898 15.35847533344067
STARLINK-1212,45223,53.0424,0.00053,15.6326756,374.64496011903793,381.80670472140355,1 45223U 20012AX  26124.91668980  .00110495  00000+0  11718-2 0  9992,2 45223  53.0424  77.1415 0005300  46.6723 249.7650 15.63267560  5983
STARLINK-1215,45225,53.1571,0.0002632,15.32392185,466.87532293652566,470.4794860390475,1 45225U 20012AZ  26124.22071834  .00049841  00000+0  15727-2 0  9994,2 45225  53.1571 100.1684 0002632  86.3913 273.7389 15.32392185343980
STARLINK-1221,45227,53.0657,0.0003212,15.43828957,432.6328029053702,437.0094472049059,1 45227U 20012BB  26124.81229933  .00016517  00000+0  36711-3 0  9997,2 45227  53.0657   3.2625 0003212 151.4782 208.6400 15.43828957345376
STARLINK-1222,45228,53.054,9.91e-05,15.52996509,407.3102861593243,408.6552951018275,1 45228U 20012BC  26124.86554058  .00040433  00000+0  64141-3 0  9994,2 45228  53.0540  72.7711 0000991  51.5977 308.5121 15.52996509344347
STARLINK-1226,45229,53.1573,0.0003412,15.40528666,442.2200692821634,446.8758695052775,1 45229U 20012BD  26124.63417542  .00065307  00000+0  15806-2 0  9996,2 45229  53.1573  96.3463 0003412  76.3359 283.8025 15.40528666344015
STARLINK-1227,45230,53.1565,0.0004505,15.40659709,441.08764317932037,447.23453375702957,1 45230U 20012BE  26124.64671199  .00064222  00000+0  15478-2 0  9999,2 45230  53.1565  96.4321 0004505  77.0220 283.1288 15.40659709344131
STARLINK-1246,45235,53.1551,0.0003031,15.3236351,466.68752482529544,470.83811549627626,1 45235U 20012BK  26124.32165640  .00033835  00000+0  10746-2 0  9997,2 45235  53.1551 140.6380 0003031  65.4509 294.6808 15.32363510343498
STARLINK-1270,45237,53.0429,0.0005179,15.56468235,394.37870345988904,401.397310161944,1 45237U 20012BM  26124.87278970  .00117154  00000+0  16081-2 0  9995,2 45237  53.0429  77.2168 0005179  60.4943 299.6583 15.56468235344395
STARLINK-1279,45360,53.0364,0.0008647,15.69648349,354.0767944157169,365.7295610991305,1 45360U 20019A   26124.44794568  .00131531  00000+0  10741-2 0  9990,2 45360  53.0364 185.7298 0008647 356.0759   4.0188 15.69648349339394
STARLINK-1301,45361,53.0386,0.0006154,15.72189809,348.4976952909319,356.7819353952573,1 45361U 20019B   26124.47554018  .00061729  00000+0  45985-3 0  9998,2 45361  53.0386 188.7985 0006154  19.5420 340.5832 15.72189809339368
STARLINK-1262,45366,53.1566,0.0001733,15.31362789,470.55830350567794,472.9324727414014,1 45366U 20019G   26124.66142023  .00051029  00000+0  16623-2 0  9991,2 45366  53.1566 265.2698 0001733 331.4035  28.6870 15.31362789338328
STARLINK-1273,45367,53.0462,0.0004207,15.52635093,406.18048283281496,411.8912100658181,1 45367U 20019H   26124.55878925  .00086467  00000+0  13728-2 0  9994,2 45367  53.0462 247.3443 0004207 289.1024  70.9529 15.52635093338558
STARLINK-1277,45369,53.046,0.0005197,15.58596701,388.19928094419174,395.2358677887878,1 45369U 20019K   26124.71648075  .00107307  00000+0  13625-2 0  9998,2 45369  53.0460 242.2053 0005197 277.9898  82.0524 15.58596701338649
STARLINK-1281,45370,53.1585,0.0002249,15.32347904,467.2694294372541,470.34918588644086,1 45370U 20019L   26124.82408012  .00060059  00000+0  18929-2 0  9991,2 45370  53.1585 264.3542 0002249 331.5450  28.5428 15.32347904338351
STARLINK-1300,45374,53.1601,0.0002599,15.32541434,466.45350042435257,470.0122434837949,1 45374U 20019Q   26124.66668980  .00031054  00000+0  98213-3 0  9997,2 45374  53.1601 265.0792 0002599 344.7473 114.3785 15.32541434  5869
STARLINK-1302,45375,53.0461,0.0003377,15.6401084,373.8041676010607,378.365969186053,1 45375U 20019R   26124.91668980  .00091456  00000+0  94552-3 0  9990,2 45375  53.0461 238.3789 0003377 315.5804 301.6260 15.64010840  6015
STARLINK-1304,45376,53.0441,0.0004205,15.57901404,390.88412740972853,396.57926898491223,1 45376U 20019S   26124.69464955  .00087116  00000+0  11397-2 0  9995,2 45376  53.0441 239.4904 0004205 304.3417  55.7196 15.57901404338674
STARLINK-1305,45377,53.0382,0.0009459,15.64583469,368.0497025603563,380.8242219821823,1 45377U 20019T   26124.91668980 -.00033620  00000+0 -33652-3 0  9997,2 45377  53.0382 218.8538 0009459 323.8503 255.7896 15.64583469  5890
STARLINK-1319,45379,53.0418,0.0003489,15.72305139,349.9624190930881,354.6589254788096,1 45379U 20019V   26124.73468845  .00025203  00000+0  19047-3 0  9995,2 45379  53.0418 213.1026 0003489 337.2403  22.8460 15.72305139339050
STARLINK-1266,45383,53.0455,0.0004194,15.54404131,401.0409201646971,406.72968047020277,1 45383U 20019Z   26124.69379723  .00089409  00000+0  13306-2 0  9990,2 45383  53.0455 224.2467 0004194 297.6806  62.3778 15.54404131338881
STARLINK-1267,45384,53.0467,0.0006149,15.60089951,383.23688522306566,391.5571389511306,1 45384U 20019AA  26124.54025790  .00103246  00000+0  12393-2 0  9998,2 45384  53.0467 217.0261 0006149 351.1843   8.9060 15.60089951338972
STARLINK-1272,45386,53.0408,0.0007765,15.66135136,364.7361870331124,375.2160066725237,1 45386U 20019AC  26124.47830299  .00049623  00000+0  47578-3 0  9992,2 45386  53.0408 197.3661 0007765 341.7313  18.3422 15.66135136339246
STARLINK-1274,45387,53.0227,0.0008849,15.56273847,392.4556355379473,404.4488431737582,1 45387U 20019AD  26124.62771450  .00084720  00000+0  11767-2 0  9990,2 45387  53.0227 193.6702 0008849   6.7779 353.3350 15.56273847339309
STARLINK-1280,45388,53.0388,0.0004948,15.73051626,346.8520559502267,353.51039966846656,1 45388U 20019AE  26124.56976598  .00074266  00000+0  53187-3 0  9991,2 45388  53.0388 206.4766 0004948 350.5614   9.5310 15.73051626339118
STARLINK-1283,45389,53.0402,0.0003654,15.67369203,363.9690845149544,368.8980166733272,1 45389U 20019AF  26124.52385147  .00052019  00000+0  47473-3 0  9995,2 45389  53.0402 196.5489 0003654  15.8861 344.2268 15.67369203339268
STARLINK-1284,45390,53.0405,0.0004089,15.66546575,366.03567175540775,371.5533123296009,1 45390U 20019AG  26124.91668980 -.00066008  00000+0 -61941-3 0  9990,2 45390  53.0405 218.2368 0004089 287.2712 158.1794 15.66546575  5897
STARLINK-1297,45395,53.0422,0.0005606,15.64972694,369.5324269548082,377.1021575072582,1 45395U 20019AM  26124.75421784  .00049547  00000+0  49795-3 0  9996,2 45395  53.0422 217.6702 0005606 299.7110  60.3346 15.64972694338161
STARLINK-1307,45397,53.0536,0.0001145,15.54453026,402.9665562254677,404.5196067641309,1 45397U 20019AP  26124.56698417  .00036062  00000+0  54374-3 0  9993,2 45397  53.0536 221.7064 0001145  21.7797 338.3261 15.54453026338733
STARLINK-1255,45399,53.0365,0.000601,15.61436209,379.4439111957345,387.57140807661744,1 45399U 20019AR  26124.59347683  .00039228  00000+0  45447-3 0  9992,2 45399  53.0365 191.5422 0006010 355.6221   4.4738 15.61436209339142
STARLINK-1260,45404,53.1572,0.0004225,15.34850235,458.4756842848428,464.2550637909053,1 45404U 20019AW  26124.53550854  .00051614  00000+0  15063-2 0  9992,2 45404  53.1572 229.0633 0004225 330.0884  29.9877 15.34850235338536
STARLINK-1263,45405,53.1573,0.0003127,15.32416235,466.46479112685483,470.7467440537057,1 45405U 20019AX  26124.57827954  .00051105  00000+0  16108-2 0  9991,2 45405  53.1573 229.4879 0003127 358.6268   1.4724 15.32416235338538
STARLINK-1265,45406,53.1578,0.000383,15.35121961,457.9390407024439,463.1774812723597,1 45406U 20019AY  26124.53567441  .00047653  00000+0  13803-2 0  9992,2 45406  53.1578 229.1350 0003830 327.3094  32.7672 15.35121961338537
STARLINK-1278,45408,53.0406,0.0005719,15.65664509,367.46829799742136,375.18833642724803,1 45408U 20019BA  26124.54357145  .00051078  00000+0  49913-3 0  9991,2 45408  53.0406 217.8542 0005719 327.1932  32.8726 15.65664509338682
